start=new Date('2022-07-31T00:00:00.000Z').valueOf();
sats=[{"APOAPSIS":"548.280","RA_OF_ASC_NODE":"244.8059","ELEMENT_SET_NO":"999","CLASSIFICATION_TYPE":"U","LAUNCH_DATE":"2020-04-22","TIME_SYSTEM":"UTC","PERIAPSIS":"546.156","ARG_OF_PERICENTER":"75.0774","PERIOD":"95.592","MEAN_MOTION_DOT":"0.00000818","MEAN_ELEMENT_THEORY":"SGP4","GP_ID":"209169028","FILE":"3525407","MEAN_MOTION":"15.06398514","REV_AT_EPOCH":"12666","OBJECT_TYPE":"PAYLOAD","OBJECT_NAME":"STARLINK-1358","EPHEMERIS_TYPE":"0","TLE_LINE2":"2 45566  53.0542 244.8059 0001534  75.0774 285.0385 15.06398514126666","COUNTRY_CODE":"US","MEAN_MOTION_DDOT":"0.0000000000000","CENTER_NAME":"EARTH","DECAY_DATE":null,"ECCENTRICITY":"0.00015340","TLE_LINE1":"1 45566U 20025AM  22211.36794346  .00000818  00000-0  73824-4 0  9990","OBJECT_ID":"2020-025AM","EPOCH":"2022-07-30T08:49:50.314944","BSTAR":"0.00007382400000","NORAD_CAT_ID":"45566","SEMIMAJOR_AXIS":"6925.353","REF_FRAME":"TEME","INCLINATION":"53.0542","MEAN_ANOMALY":"285.0385","RCS_SIZE":"LARGE","SITE":"AFETR"},{"OBJECT_TYPE":"PAYLOAD","EPHEMERIS_TYPE":"0","OBJECT_NAME":"STARLINK-1361","TLE_LINE2":"2 45567  53.0536 242.9469 0001317  80.0147 280.0990 15.06409202126735","COUNTRY_CODE":"US","MEAN_MOTION_DDOT":"0.0000000000000","CENTER_NAME":"EARTH","RA_OF_ASC_NODE":"242.9469","APOAPSIS":"548.097","ELEMENT_SET_NO":"999","LAUNCH_DATE":"2020-04-22","CLASSIFICATION_TYPE":"U","TIME_SYSTEM":"UTC","ARG_OF_PERICENTER":"80.0147","PERIAPSIS":"546.273","MEAN_MOTION_DOT":"0.00000807","PERIOD":"95.592","MEAN_ELEMENT_THEORY":"SGP4","GP_ID":"209225233","FILE":"3525638","MEAN_MOTION":"15.06409202","REV_AT_EPOCH":"12673","REF_FRAME":"TEME","INCLINATION":"53.0536","MEAN_ANOMALY":"280.0990","RCS_SIZE":"LARGE","SITE":"AFETR","ECCENTRICITY":"0.00013170","DECAY_DATE":null,"TLE_LINE1":"1 45567U 20025AN  22211.77708400  .00000807  00000-0  73036-4 0  9995","BSTAR":"0.00007303600000","EPOCH":"2022-07-30T18:39:00.057600","OBJECT_ID":"2020-025AN","SEMIMAJOR_AXIS":"6925.320","NORAD_CAT_ID":"45567"},{"COUNTRY_CODE":"US","MEAN_MOTION_DDOT":"0.0000000000000","CENTER_NAME":"EARTH","OBJECT_NAME":"STARLINK-1363","EPHEMERIS_TYPE":"0","OBJECT_TYPE":"PAYLOAD","TLE_LINE2":"2 45568  53.0540 243.1371 0001393  75.8220 284.2924 15.06409643126129","PERIAPSIS":"546.219","ARG_OF_PERICENTER":"75.8220","TIME_SYSTEM":"UTC","GP_ID":"209200390","MEAN_MOTION":"15.06409643","FILE":"3525447","REV_AT_EPOCH":"12612","PERIOD":"95.592","MEAN_ELEMENT_THEORY":"SGP4","MEAN_MOTION_DOT":"0.00001118","APOAPSIS":"548.149","RA_OF_ASC_NODE":"243.1371","CLASSIFICATION_TYPE":"U","LAUNCH_DATE":"2020-04-22","ELEMENT_SET_NO":"999","MEAN_ANOMALY":"284.2924","INCLINATION":"53.0540","SITE":"AFETR","RCS_SIZE":"LARGE","REF_FRAME":"TEME","TLE_LINE1":"1 45568U 20025AP  22211.79186078  .00001118  00000-0  93940-4 0  9991","DECAY_DATE":null,"ECCENTRICITY":"0.00013930","NORAD_CAT_ID":"45568","SEMIMAJOR_AXIS":"6925.319","OBJECT_ID":"2020-025AP","EPOCH":"2022-07-30T19:00:16.771392","BSTAR":"0.00009394000000"},{"TLE_LINE2":"2 45569  53.0540 242.9443 0001549  67.6145 292.5008 15.06394555126721","EPHEMERIS_TYPE":"0","OBJECT_NAME":"STARLINK-1366","OBJECT_TYPE":"PAYLOAD","CENTER_NAME":"EARTH","MEAN_MOTION_DDOT":"0.0000000000000","COUNTRY_CODE":"US","CLASSIFICATION_TYPE":"U","LAUNCH_DATE":"2020-04-22","ELEMENT_SET_NO":"999","RA_OF_ASC_NODE":"242.9443","APOAPSIS":"548.303","FILE":"3525638","GP_ID":"209224233","MEAN_MOTION":"15.06394555","REV_AT_EPOCH":"12672","MEAN_MOTION_DOT":"0.00000803","PERIOD":"95.592","MEAN_ELEMENT_THEORY":"SGP4","ARG_OF_PERICENTER":"67.6145","PERIAPSIS":"546.158","TIME_SYSTEM":"UTC","REF_FRAME":"TEME","SITE":"AFETR","RCS_SIZE":"LARGE","MEAN_ANOMALY":"292.5008","INCLINATION":"53.0540","SEMIMAJOR_AXIS":"6925.365","NORAD_CAT_ID":"45569","BSTAR":"0.00007277900000","EPOCH":"2022-07-30T18:44:18.381984","OBJECT_ID":"2020-025AQ","TLE_LINE1":"1 45569U 20025AQ  22211.78076831  .00000803  00000-0  72779-4 0  9993","ECCENTRICITY":"0.00015490","DECAY_DATE":null},{"APOAPSIS":"548.038","RA_OF_ASC_NODE":"244.1591","ELEMENT_SET_NO":"999","CLASSIFICATION_TYPE":"U","LAUNCH_DATE":"2020-04-22","TIME_SYSTEM":"UTC","PERIAPSIS":"546.421","ARG_OF_PERICENTER":"79.4841","PERIOD":"95.592","MEAN_ELEMENT_THEORY":"SGP4","MEAN_MOTION_DOT":"-0.00000186","GP_ID":"209169529","REV_AT_EPOCH":"12668","FILE":"3525407","MEAN_MOTION":"15.06394832","OBJECT_TYPE":"PAYLOAD","OBJECT_NAME":"STARLINK-1376","EPHEMERIS_TYPE":"0","TLE_LINE2":"2 45570  53.0538 244.1591 0001168  79.4841 280.6280 15.06394832126682","MEAN_MOTION_DDOT":"0.0000000000000","COUNTRY_CODE":"US","CENTER_NAME":"EARTH","DECAY_DATE":null,"ECCENTRICITY":"0.00011680","TLE_LINE1":"1 45570U 20025AR  22211.50800959 -.00000186  00000-0  63738-5 0  9992","OBJECT_ID":"2020-025AR","EPOCH":"2022-07-30T12:11:32.028576","BSTAR":"0.00000637380000","NORAD_CAT_ID":"45570","SEMIMAJOR_AXIS":"6925.364","REF_FRAME":"TEME","INCLINATION":"53.0538","MEAN_ANOMALY":"280.6280","SITE":"AFETR","RCS_SIZE":"LARGE"},{"APOAPSIS":"548.179","RA_OF_ASC_NODE":"232.6022","CLASSIFICATION_TYPE":"U","LAUNCH_DATE":"2020-04-22","ELEMENT_SET_NO":"999","PERIAPSIS":"546.272","ARG_OF_PERICENTER":"76.9637","TIME_SYSTEM":"UTC","FILE":"3525638","GP_ID":"209224734","REV_AT_EPOCH":"12689","MEAN_MOTION":"15.06396009","PERIOD":"95.592","MEAN_ELEMENT_THEORY":"SGP4","MEAN_MOTION_DOT":"0.00001853","OBJECT_NAME":"STARLINK-1261","EPHEMERIS_TYPE":"0","OBJECT_TYPE":"PAYLOAD","TLE_LINE2":"2 45571  53.0511 232.6022 0001377  76.9637 283.1506 15.06396009126892","COUNTRY_CODE":"US","MEAN_MOTION_DDOT":"0.0000000000000","CENTER_NAME":"EARTH","TLE_LINE1":"1 45571U 20025AS  22211.85542613  .00001853  00000-0  14324-3 0  9997","DECAY_DATE":null,"ECCENTRICITY":"0.00013770","NORAD_CAT_ID":"45571","SEMIMAJOR_AXIS":"6925.361","OBJECT_ID":"2020-025AS","EPOCH":"2022-07-30T20:31:48.817632","BSTAR":"0.00014324000000","REF_FRAME":"TEME","MEAN_ANOMALY":"283.1506","INCLINATION":"53.0511","RCS_SIZE":"LARGE","SITE":"AFETR"},{"TLE_LINE1":"1 45572U 20025AT  22211.78169544 -.00000626  00000-0 -23144-4 0  9998","DECAY_DATE":null,"ECCENTRICITY":"0.00014780","NORAD_CAT_ID":"45572","SEMIMAJOR_AXIS":"6925.358","OBJECT_ID":"2020-025AT","BSTAR":"-0.00002314400000","EPOCH":"2022-07-30T18:45:38.486016","MEAN_ANOMALY":"282.6469","INCLINATION":"53.0532","SITE":"AFETR","RCS_SIZE":"LARGE","REF_FRAME":"TEME","PERIAPSIS":"546.200","ARG_OF_PERICENTER":"77.4685","TIME_SYSTEM":"UTC","GP_ID":"209200333","FILE":"3525444","REV_AT_EPOCH":"12626","MEAN_MOTION":"15.06396862","PERIOD":"95.592","MEAN_ELEMENT_THEORY":"SGP4","MEAN_MOTION_DOT":"-0.00000626","APOAPSIS":"548.247","RA_OF_ASC_NODE":"232.9445","LAUNCH_DATE":"2020-04-22","CLASSIFICATION_TYPE":"U","ELEMENT_SET_NO":"999","MEAN_MOTION_DDOT":"0.0000000000000","COUNTRY_CODE":"US","CENTER_NAME":"EARTH","OBJECT_NAME":"STARLINK-1320","EPHEMERIS_TYPE":"0","OBJECT_TYPE":"PAYLOAD","TLE_LINE2":"2 45572  53.0532 232.9445 0001478  77.4685 282.6469 15.06396862126269"},{"ELEMENT_SET_NO":"999","CLASSIFICATION_TYPE":"U","LAUNCH_DATE":"2020-04-22","APOAPSIS":"548.221","RA_OF_ASC_NODE":"233.0461","PERIOD":"95.592","MEAN_ELEMENT_THEORY":"SGP4","MEAN_MOTION_DOT":"-0.00000367","GP_ID":"209223733","FILE":"3525638","REV_AT_EPOCH":"12656","MEAN_MOTION":"15.06396172","TIME_SYSTEM":"UTC","PERIAPSIS":"546.229","ARG_OF_PERICENTER":"58.7187","TLE_LINE2":"2 45573  53.0544 233.0461 0001438  58.7187 301.3943 15.06396172126561","OBJECT_TYPE":"PAYLOAD","OBJECT_NAME":"STARLINK-1321","EPHEMERIS_TYPE":"0","CENTER_NAME":"EARTH","COUNTRY_CODE":"US","MEAN_MOTION_DDOT":"0.0000000000000","OBJECT_ID":"2020-025AU","EPOCH":"2022-07-30T18:13:47.209152","BSTAR":"-0.00000575870000","NORAD_CAT_ID":"45573","SEMIMAJOR_AXIS":"6925.360","DECAY_DATE":null,"ECCENTRICITY":"0.00014380","TLE_LINE1":"1 45573U 20025AU  22211.75957418 -.00000367  00000-0 -57587-5 0  9992","REF_FRAME":"TEME","RCS_SIZE":"LARGE","SITE":"AFETR","INCLINATION":"53.0544","MEAN_ANOMALY":"301.3943"},{"TLE_LINE2":"2 45574  53.0523 232.9170 0001335  75.4337 284.6799 15.06394207126270","EPHEMERIS_TYPE":"0","OBJECT_NAME":"STARLINK-1324","OBJECT_TYPE":"PAYLOAD","CENTER_NAME":"EARTH","COUNTRY_CODE":"US","MEAN_MOTION_DDOT":"0.0000000000000","LAUNCH_DATE":"2020-04-22","CLASSIFICATION_TYPE":"U","ELEMENT_SET_NO":"999","RA_OF_ASC_NODE":"232.9170","APOAPSIS":"548.156","MEAN_MOTION":"15.06394207","GP_ID":"209200626","FILE":"3525445","REV_AT_EPOCH":"12627","MEAN_ELEMENT_THEORY":"SGP4","PERIOD":"95.593","MEAN_MOTION_DOT":"0.00001086","ARG_OF_PERICENTER":"75.4337","PERIAPSIS":"546.307","TIME_SYSTEM":"UTC","REF_FRAME":"TEME","RCS_SIZE":"LARGE","SITE":"AFETR","MEAN_ANOMALY":"284.6799","INCLINATION":"53.0523","SEMIMAJOR_AXIS":"6925.366","NORAD_CAT_ID":"45574","EPOCH":"2022-07-30T18:50:56.856192","BSTAR":"0.00009179700000","OBJECT_ID":"2020-025AV","TLE_LINE1":"1 45574U 20025AV  22211.78538028  .00001086  00000-0  91797-4 0  9995","ECCENTRICITY":"0.00013350","DECAY_DATE":null},{"PERIOD":"94.976","MEAN_MOTION_DOT":"0.00007750","MEAN_ELEMENT_THEORY":"SGP4","GP_ID":"209225234","FILE":"3525638","MEAN_MOTION":"15.16165899","REV_AT_EPOCH":"12704","TIME_SYSTEM":"UTC","ARG_OF_PERICENTER":"20.3680","PERIAPSIS":"516.827","ELEMENT_SET_NO":"999","CLASSIFICATION_TYPE":"U","LAUNCH_DATE":"2020-04-22","RA_OF_ASC_NODE":"218.3634","APOAPSIS":"518.060","CENTER_NAME":"EARTH","MEAN_MOTION_DDOT":"0.0000000000000","COUNTRY_CODE":"US","TLE_LINE2":"2 45575  52.9952 218.3634 0000894  20.3680 339.7348 15.16165899127049","OBJECT_TYPE":"PAYLOAD","EPHEMERIS_TYPE":"0","OBJECT_NAME":"STARLINK-1326","EPOCH":"2022-07-30T17:50:48.158016","BSTAR":"0.00041223000000","OBJECT_ID":"2020-025AW","SEMIMAJOR_AXIS":"6895.578","NORAD_CAT_ID":"45575","DECAY_DATE":null,"ECCENTRICITY":"0.00008940","TLE_LINE1":"1 45575U 20025AW  22211.74361294  .00007750  00000-0  41223-3 0  9993","RCS_SIZE":"LARGE","SITE":"AFETR","INCLINATION":"52.9952","MEAN_ANOMALY":"339.7348","REF_FRAME":"TEME"}];
